existingsiteidentified,proposedleasedfacility,forecastcapacity,district,school,projectnum,description,location,latitude,longitude,actualestcompl,fy,designstart,constrstart,totalestcost,previousappropriations,fundingreqdfy1519,neededtocomplete,cd,borough,geom
Yes,No,548,78Q,CARDOZO HIGH SCHOOL ANNEX,DSF0000888760,capacity projects,,,,Jun-22,2022,Apr-18,Jul-19,71.79,0,5.49,66.3,,,
Yes,No,345,78R,CURTIS HIGH SCHOOL ANNEX,DSF0000798232,capacity projects,,,,Jul-17,2018,Apr-14,Sep-15,101.18,0.14,101.04,0,,,
Yes,,Replacement,75R,D75 REPLACEMENT @ 15 FAIRFIELD STREET,DSF0000821871,replacement projects,,,,Sep-20,2021,Sep-16,Feb-18,58.15,0,53.78,4.38,,,
Yes,,602,78K,EAST NY FAMILY ACADEMY,DSF0000844038,class size reduction projects,,,,21-Jun,2021,17-Apr,18-Jun,111.29,0,101.51,9.78,,,
Yes,No,728,24,I.S. 125,DSF0000798199,capacity projects,,,,Sep-17,2018,Feb-14,Dec-15,117.66,0.3,117.36,0,,,
Yes,No,969,78Q,ACADEMY OF AMERICAN STUDIES,DSF0000798215,capacity projects,28-01 41ST AVENUE,40.751356,-73.937445,Jun-21,2021,Jul-16,Mar-18,121.02,0.02,110.66,10.34,401,Queens,0101000020E61000001E335019FF7B52C0A2D3F36E2C604440
Yes,Yes,288,15,EDUCATIONAL CAMPUS @ 500 19TH STREET,DSF0000821918,pre-k capacity projects,500 19TH STREET,40.656944,-73.983115,15-Aug,2016,15-Feb,15-Mar,5.27,0,5.27,0,307,Brooklyn,0101000020E6100000404D2D5BEB7E52C0D7A6B1BD16544440
Yes,Yes,378,15,EDUCATIONAL CAMPUS @ 500 19TH STREET,DSF0000798184,capacity projects,500 19TH STREET,40.656944,-73.983115,Sep-17,2018,Mar-16,Jul-17,23.54,0,23.54,0,307,Brooklyn,0101000020E6100000404D2D5BEB7E52C0D7A6B1BD16544440
Yes,Yes,224,31,FOREST AVENUE COMMUNITY EDUCATIONAL COMPLEX,DSF0000821684,capacity projects,1625 FOREST AVENUE,40.624773,-74.142525,Sep-16,2017,Jun-14,Dec-14,27.49,0,27.49,0,501,Staten Island,0101000020E610000032772D211F8952C03F36C98FF84F4440
Yes,Yes,90,31,FOREST AVENUE COMMUNITY EDUCATIONAL COMPLEX,DSF0000800050,pre-k capacity projects,1625 FOREST AVENUE,40.624773,-74.142525,15-Sep,2016,14-Jun,14-Dec,21.89,0.01,21.88,0,501,Staten Island,0101000020E610000032772D211F8952C03F36C98FF84F4440
Yes,No,555,78Q,FRANCIS LEWIS HS ANNEX,DSF0000821799,capacity projects,58-20 UTOPIA PARKWAY,40.740724,-73.79283,Jul-21,2022,Apr-17,Jul-18,74.92,0,67.29,7.62,411,Queens,0101000020E610000069520ABABD7252C060AE450BD05E4440
Yes,No,1016,78Q,H.S. @ 51-30 NORTHERN BOULEVARD,DSF0000866092,capacity projects,51-30 NORTHERN BOULEVARD,40.753167,-73.908092,Jun-23,2023,Jan-18,Apr-19,111.79,0,100.24,11.56,402,Queens,0101000020E61000009770E82D1E7A52C095B6B8C667604440
Yes,No,646,15,I.S. @ 21-31 & 35 DELEVAN STREET,DSF0000843826,capacity projects,21-31 & 35 DELEVAN STREET,,,Jun-22,2022,Jun-18,Sep-19,62.35,0,6.12,56.23,,,
Yes,No,536,30,I.S. @ 44-59 45 AVENUE,DSF0000843827,capacity projects,44-59 45 AVENUE,,,Jun-22,2022,Apr-18,Jul-19,71.19,0,6.39,64.8,,,
Yes,Yes,507,78Q,I.S./H.S. 336,DSF0000798226,capacity projects,,,,Sep-18,2019,Oct-13,Jul-16,27.77,0.45,27.32,0,,,
Yes,,Replacement,75R,I.S./H.S. @ 715 OCEAN TERRACE,DSF0000844161,replacement projects,,,,Sep-21,2022,Nov-17,Dec-18,100,0,89.51,10.49,,,
No,Yes,306,24,PRE-K CENTER @ 111TH STREET,DSF0000844699,pre-k capacity projects,,,,20-Sep,2021,16-Aug,18-May,41.45,0,37.88,3.57,,,
Yes,Yes,90,2,PRE-K CENTER @ 1683 3RD AVENUE,DSF0000867184,pre-k capacity projects,,,,18-Sep,2019,17-Aug,18-Mar,15,0,15,0,,,
Yes,Yes,144,2,PRE-K CENTER @ 252 EAST 57 STREET,DSF0000866268,pre-k capacity projects,,,,18-Sep,2019,17-May,18-Mar,19.01,0,19.01,0,,,
Yes,Yes,54,24,PRE-K CENTER @ 54-25 101ST STREET,DSF0000844691,pre-k capacity projects,,,,18-Sep,2019,16-Sep,17-Jul,3.32,0,3.32,0,,,
No,No,18,24,PRE-K CENTER @ CORONA AVENUE,DSF0000866312,pre-k capacity projects,,,,18-Sep,2019,17-Jun,18-Mar,4.94,0,4.94,0,,,
No,Yes,72,2,PRE-K CENTER @ WEST 57TH STREET,DSF0000865846,pre-k capacity projects,,,,19-Sep,2020,16-Dec,18-May,7.99,0,7.62,0.37,,,
No,Yes,456,2,PROJECT #1,DSF0000798172,capacity projects,,,,Jun-22,2022,Mar-18,Jun-19,21.84,0,19.62,2.22,,,
No,No,632,13,PROJECT #1,DSF0000843824,capacity projects,,,,Jun-22,2022,Mar-18,Jun-19,42.84,0,38.55,4.29,,,
No,No,824,10,PROJECT #1,DSF0000843830,capacity projects,,,,Jun-23,2023,Jun-18,Dec-19,61.77,0,4.7,57.06,,,
No,No,608,20,PROJECT #1,DSF0000798187,capacity projects,,,,Jun-22,2022,Jun-18,Sep-19,47.66,0,3.75,43.91,,,
No,No,723,24,PROJECT #1,DSF0000843831,capacity projects,,,,Jun-22,2022,Jun-18,Sep-19,56.22,0,4.29,51.93,,,
No,Yes,506,25,PROJECT #1,DSF0000888955,capacity projects,,,,Jun-22,2022,Jun-18,Sep-19,31.49,0,2.39,29.1,,,
No,No,456,7,PROJECT #1,DSF0000798173,capacity projects,,,,Jun-22,2022,Jun-18,Oct-19,36.15,0,2.82,33.33,,,
No,No,262,15,PROJECT #1,DSF0000866091,capacity projects,,,,Jun-22,2022,Mar-18,Jun-19,26.3,0,23.6,2.7,,,
No,Yes,612,14,PROJECT #1,DSF0000687094,capacity projects,,,,Jun-22,2022,Jun-18,Sep-19,28.01,0.06,2.16,25.78,,,
No,Yes,204,28,PROJECT #1,DSF0000888931,capacity projects,,,,Feb-21,2021,Jan-19,Feb-20,18.73,0,1.42,17.31,,,
No,Yes,436,30,PROJECT #2,DSF0000798211,capacity projects,,,,Jun-22,2022,Mar-18,Jun-19,19.55,0,17.46,2.09,,,
No,Yes,456,10,PROJECT #2,DSF0000798174,capacity projects,,,,Jun-22,2022,Jun-18,Sep-19,20.92,0.07,1.66,19.2,,,
No,Yes,332,27,PROJECT #2,DSF0000798206,capacity projects,,,,Jun-22,2022,Jun-18,Sep-19,15.09,0,1.19,13.89,,,
No,Yes,454,12,PROJECT #2,DSF0000798238,capacity projects,,,,Jun-22,2022,Jun-18,Sep-19,20.85,0,1.65,19.2,,,
No,No,379,14,PROJECT #2,DSF0000798240,capacity projects,,,,Aug-21,2022,May-18,Jul-19,34.03,0,3.55,30.48,,,
No,Yes,640,20,PROJECT #2,DSF0000798188,capacity projects,,,,Jun-22,2022,Mar-18,Jun-19,28.98,0,25.9,3.09,,,
No,No,656,13,PROJECT #3,DSF0000843661,capacity projects,,,,Jun-22,2022,Jun-18,Sep-19,50.63,0,4.83,45.8,,,
No,No,484,10,PROJECT #3,DSF0000867118,capacity projects,,,,Jun-22,2022,Mar-18,Jun-19,48.4,0,43.34,5.06,,,
No,No,1000,30,PROJECT #3,DSF0000798212,capacity projects,,,,Jun-23,2023,Jun-18,Sep-19,90.34,0.01,8.04,82.3,,,
No,Yes,308,20,PROJECT #3,DSF0000845622,capacity projects,,,,Jun-22,2022,Jun-18,Oct-19,14.29,0,1.08,13.2,,,
No,No,605,20,PROJECT #4,DSF0000843829,capacity projects,,,,Jun-22,2022,Jun-18,Sep-19,45.31,0,3.43,41.88,,,
No,Yes,456,20,PROJECT #5,DSF0000798567,capacity projects,,,,Jun-22,2022,Mar-18,Jun-19,20.96,0,18.76,2.2,,,
No,Yes,456,20,PROJECT #6,DSF0000798191,capacity projects,,,,Jun-22,2022,Mar-18,Jun-19,20.73,0.05,18.49,2.19,,,
No,No,420,15,PROJECT #6,DSF0000866306,capacity projects,,,,Jun-22,2022,Jun-18,Sep-19,60.99,0,4.59,56.4,,,
No,No,456,20,PROJECT #7,DSF0000798190,capacity projects,,,,Jun-22,2022,Jun-18,Sep-19,34.08,0,2.57,31.51,,,
Yes,No,456,21,P.S. 101,DSF0000798192,capacity projects,,,,Jun-19,2019,May-15,Dec-16,90.96,0,90.96,0,,,
Yes,No,364,20,P.S. 127,DSF0000798189,capacity projects,,,,May-21,2021,Feb-17,May-18,92.06,0,84.04,8.02,,,
Yes,No,440,24,P.S. 128,DSF0000821576,capacity projects,,,,Jun-20,2020,Mar-16,Jun-17,45.11,0,41.41,3.7,,,
Yes,No,548,25,P.S. 129,DSF0000843833,capacity projects,,,,Sep-20,2021,Sep-16,May-18,67.15,0,61.44,5.71,,,
Yes,,384,29,P.S. 131 ADDITION,DSF0000843904,class size reduction projects,,,,21-Jul,2022,17-Mar,18-Jun,75.84,0,69.23,6.61,,,
Yes,No,344,8,P.S. 14,DSF0000798233,capacity projects,,,,Sep-18,2019,Feb-15,Jul-16,70.99,0.18,70.81,0,,,
Yes,No,980,24,P.S. 143,DSF0000798195,capacity projects,,,,Sep-20,2021,Jan-16,Jul-17,125.07,0.07,114.28,10.73,,,
Yes,No,590,28,P.S. 144,DSF0000798209,capacity projects,,,,Sep-19,2020,Dec-15,Jul-17,72.41,0,69.06,3.35,,,
Yes,No,410,25,P.S. 169,DSF0000798201,capacity projects,,,,Jun-22,2022,Apr-18,Jul-19,45.1,0,3.47,41.63,,,
Yes,No,640,24,P.S. 19,DSF0000798568,capacity projects,,,,Sep-18,2019,Mar-15,Jul-16,113.87,0.01,113.85,0,,,
Yes,No,250,28,P.S. 196,DSF0000843834,capacity projects,,,,Jun-22,2022,Apr-18,Jul-19,37.5,0,2.88,34.62,,,
Yes,,400,11,P.S. 19 ADDITION,DSF0000821591,class size reduction projects,,,,20-Jul,2021,16-May,17-Jun,70.61,0,64.76,5.86,,,
Yes,,Replacement,24,P.S. 19 MINISCHOOL,DSF0000798568,replacement projects,,,,Sep-18,2019,Mar-15,Jul-16,14.22,0,14.22,0,,,
Yes,,Replacement,30,P.S. 2,DSF0000888778,replacement projects,,,,Sep-21,2022,Dec-17,Mar-19,45,0,40.2,4.8,,,
Yes,No,392,28,P.S. 206,DSF0000888762,capacity projects,,,,Jun-22,2022,Mar-18,Jun-19,43.15,0,38.55,4.61,,,
Yes,,Replacement,25,P.S. 24,DSF0000798203,replacement projects,,,,Sep-18,2019,Dec-14,Jul-16,9.26,0,9.25,0,,,
Yes,No,600,25,P.S. 24,DSF0000798203,capacity projects,,,,Sep-18,2019,Dec-14,Jul-16,113.37,0.05,113.33,0,,,
Yes,No,416,22,P.S. 254,DSF0000798194,capacity projects,,,,Jun-21,2021,Jul-17,Oct-18,64.94,0,58.08,6.86,,,
Yes,,Replacement,75Q,P.S. 256 ANNEX,DSF0000843866,replacement projects,,,,Sep-20,2021,Apr-16,Jan-18,23.06,0,21.44,1.61,,,
Yes,No,484,28,P.S. 303,DSF0000798208,capacity projects,,,,Sep-19,2020,Feb-15,Jan-17,97.45,0,93.31,4.14,,,
Yes,Yes,Replacement,10,P.S. 315,DSF0000775874,replacement projects,,,,May-17,2017,Sep-13,Mar-15,20.95,0.49,20.45,0,,,
Yes,No,436,15,P.S. 32,DSF0000798185,capacity projects,,,,Jul-20,2021,Mar-15,Jun-17,102.81,0.09,94.19,8.53,,,
Yes,No,296,10,P.S. 340 GYM ANNEX,DSF0000798176,capacity projects,,,,Sep-21,2022,Sep-17,Dec-18,65.92,0.02,58.95,6.95,,,
Yes,No,456,26,P.S. 46,DSF0000798204,capacity projects,,,,Jun-22,2022,Apr-18,Jul-19,68.4,0,5.25,63.15,,,
Yes,No,500,10,P.S. 46,DSF0000798175,capacity projects,,,,Jun-19,2019,Feb-15,Dec-16,120,0.07,119.93,0,,,
Yes,No,333,24,P.S. 49,DSF0000798200,capacity projects,,,,Sep-17,2018,Mar-14,Dec-15,44.64,0.13,44.52,0,,,
Yes,No,124,27,P.S. 66,DSF0000801039,capacity projects,,,,Sep-19,2020,Aug-15,Jun-17,42.14,0,40.42,1.72,,,
Yes,No,468,21,P.S. 97,DSF0000798193,capacity projects,,,,Jun-21,2021,Mar-17,Jul-18,68.12,0,61,7.12,,,
Yes,No,548,11,P.S. 97,DSF0000798178,capacity projects,,,,Apr-21,2021,Feb-17,Apr-18,93.29,0.11,85.03,8.15,,,
Yes,No,462,2,P.S. @ HUDSON SQUARE,DSF0000798236,capacity projects,2 HUDSON SQUARE,,,Jun-23,2023,Mar-18,Jul-21,34.19,0,3.56,30.63,,,
Yes,No,766,2,P.S./I.S. @ WESTERN RAILYARDS,DSF0000424314,capacity projects,,,,Sep-22,2023,Apr-18,Jul-19,106.29,0.33,8.11,97.85,,,
Yes,No,612,30,P.S. @ PARCEL F,DSF0000843984,capacity projects,2ND STREET BETWEEN 56TH AND 57TH AVENUE,,,Jun-21,2021,Apr-16,Jan-18,93.13,0,85.14,7.99,,,
Yes,Yes,Replacement,78X,SOUTHERN BOULEVARD COMMUNITY CAMPUS,DSF0000800056,replacement projects,,,,Jul-16,2017,Sep-14,Jul-15,11.42,0,11.42,0,,,
Yes,Yes,Replacement,78M,WEST END SECONDARY SCHOOL,DSF0000800279,replacement projects,,,,Feb-19,2019,Jun-14,Jan-17,19.35,0,19.35,0,,,
Yes,No,1016,2,I.S. 323,DSF0000798235,capacity projects,75 MORTON STREET,40.730999,-74.007191,May-18,2018,Aug-13,Feb-15,181.4,44.1,137.3,0,102,Manhattan,0101000020E6100000D6743DD1758052C050340F60915D4440
Yes,No,725,30,I.S. @ 38-04 48TH STREET,DSF0000843825,capacity projects,38-04 48TH STREET,40.749939,-73.915452,Jun-22,2022,Feb-18,Jun-19,74.18,0,67.84,6.34,402,Queens,0101000020E6100000B343FCC3967A52C05A7F4B00FE5F4440
Yes,No,646,24,I.S. 419,DSF0000798196,capacity projects,111-10 ASTORIA BOULEVARD,40.7599,-73.859218,Sep-21,2022,Sep-16,May-18,124.4,0.14,114.25,10,403,Queens,0101000020E61000009C887E6DFD7652C07E1D386744614440
Yes,No,640,13,I.S. 653,DSF0000798239,capacity projects,491 DEAN STREET,40.681392,-73.973655,Jun-21,2021,May-15,Jul-19,126.15,0,100.74,25.41,308,Brooklyn,0101000020E61000008FA50F5D507E52C0C6E061DA37574440
Yes,Yes,309,31,I.S. 82,DSF0000798214,capacity projects,104 GORDON STREET,40.624263,-74.082667,Jun-17,2017,Nov-15,Nov-16,15.14,0.01,15.13,0,501,Staten Island,0101000020E6100000575D876A4A8552C02A8D98D9E74F4440
Yes,Yes,162,29,PRE-K CENTER @ 100-01 SPRINGFIELD BOULEVARD,DSF0000801025,pre-k capacity projects,100-01 SPRINGFIELD BOULEVARD,40.714844,-73.735602,15-Jul,2016,14-Aug,14-Dec,8.73,0,8.73,0,413,Queens,0101000020E6100000D237691A146F52C0F4DE1802805B4440
Yes,Yes,72,24,PRE-K CENTER @ 104-14 ROOSEVELT AVENUE,DSF0000844698,pre-k capacity projects,104-14 ROOSEVELT AVENUE,40.749999,-73.861311,17-Sep,2018,16-Aug,17-May,12.94,0,12.94,0,404,Queens,0101000020E6100000D82B2CB81F7752C030849CF7FF5F4440
Yes,Yes,90,7,PRE-K CENTER @ 105 WILLIS AVENUE,DSF0000800054,pre-k capacity projects,105 WILLIS AVENUE,40.805788,-73.925307,15-Jul,2016,14-Jun,14-Dec,8.61,0,8.61,0,201,Bronx,0101000020E6100000A2F0D93A387B52C02FC1A90F24674440
Yes,Yes,36,24,PRE-K CENTER @ 106-02 NORTHERN BOULEVARD,DSF0000822098,pre-k capacity projects,106-02 NORTHERN BOULEVARD,40.757755,-73.862659,16-Aug,2017,15-Jun,16-Feb,4.19,0,4.19,0,403,Queens,0101000020E6100000672618CE357752C0B4B0A71DFE604440
Yes,Yes,77,24,PRE-K CENTER @ 107-17 NORTHERN BOULEVARD,DSF0000822099,pre-k capacity projects,107-17 NORTHERN BOULEVARD,40.757811,-73.861666,16-Jul,2017,15-Jun,16-Jan,5.7,0,5.7,0,403,Queens,0101000020E6100000CF842689257752C047C66AF3FF604440
Yes,Yes,54,24,PRE-K CENTER @ 108-18 ROOSEVELT AVENUE,DSF0000845581,pre-k capacity projects,108-18 ROOSEVELT AVENUE,40.750844,-73.858303,18-Sep,2019,16-Oct,18-Mar,5.97,0,5.97,0,404,Queens,0101000020E6100000C2C3B46FEE7652C0EC32FCA71B604440
Yes,Yes,180,21,PRE-K CENTER @ 10 BOUCK COURT,DSF0000821873,pre-k capacity projects,10 BOUCK COURT,40.588759,-73.973728,16-Aug,2017,15-Mar,16-Jan,17.78,0,17.78,0,315,Brooklyn,0101000020E6100000C4CC3E8F517E52C0E31C75745C4B4440
Yes,Yes,144,22,PRE-K CENTER @ 1139 CONEY ISLAND AVENUE,DSF0000800113,pre-k capacity projects,1139 CONEY ISLAND AVENUE,40.630101,-73.966207,15-Jul,2016,14-Jun,14-Dec,13.05,0,13.05,0,314,Brooklyn,0101000020E6100000A48AE255D67D52C0A5164A26A7504440
Yes,Yes,108,31,PRE-K CENTER @ 120 STUYVESANT PLACE,DSF0000800267,pre-k capacity projects,120 STUYVESANT PLACE,40.642992,-74.076954,15-Aug,2016,14-Jul,15-Jan,19.26,0,19.26,0,501,Staten Island,0101000020E6100000F85278D0EC8452C079CBD58F4D524440
Yes,Yes,108,21,PRE-K CENTER @ 1215 AVENUE X,DSF0000800303,pre-k capacity projects,1215 AVENUE X,40.591856,-73.95842,15-Aug,2016,14-Jul,14-Dec,5.4,0,5.4,0,315,Brooklyn,0101000020E610000045F5D6C0567D52C07FF8F9EFC14B4440
Yes,Yes,72,21,PRE-K CENTER @ 1223 CONEY ISLAND AVENUE,DSF0000821960,pre-k capacity projects,1223 CONEY ISLAND AVENUE,40.62782,-73.96574,17-Jul,2018,15-Apr,16-Jan,10.91,0,10.91,0,314,Brooklyn,0101000020E6100000191C25AFCE7D52C02AE3DF675C504440
Yes,Yes,144,25,PRE-K CENTER @ 123-07 22ND AVENUE,DSF0000821868,pre-k capacity projects,123-07 22ND AVENUE,40.78016,-73.844931,17-Sep,2018,15-Feb,15-Dec,6.68,0,6.68,0,407,Queens,0101000020E61000001A187959137652C0DDD26A48DC634440
Yes,Yes,126,20,PRE-K CENTER @ 1258 65TH STREET,DSF0000800123,pre-k capacity projects,1258 65TH STREET,40.626555,-74.002486,15-Jul,2016,14-Jun,14-Dec,12.31,0,12.31,0,310,Brooklyn,0101000020E6100000AA2C0ABB288052C0991249F432504440
Yes,Yes,36,15,PRE-K CENTER @ 131 UNION STREET,DSF0000822084,pre-k capacity projects,131 UNION STREET,40.68428,-74.002592,16-Sep,2017,15-Jun,16-Feb,7.33,0,7.33,0,306,Brooklyn,0101000020E6100000CDCEA2772A8052C048A7AE7C96574440
Yes,Yes,90,28,PRE-K CENTER @ 132-10 JAMAICA AVENUE,DSF0000800124,pre-k capacity projects,132-10 JAMAICA AVENUE,40.702156,-73.820209,15-Jun,2015,14-Jun,14-Dec,11.98,0,11.98,0,409,Queens,0101000020E6100000A2B8E34D7E7452C05858703FE0594440
Yes,Yes,252,22,PRE-K CENTER @ 1340 EAST 29TH STREET,DSF0000822027,pre-k capacity projects,1340 EAST 29TH STREET,40.61845,-73.94633,15-Sep,2016,15-Mar,15-May,15.65,0,15.65,0,314,Brooklyn,0101000020E6100000514EB4AB907C52C0091B9E5E294F4440
Yes,Yes,90,20,PRE-K CENTER @ 1355 84TH STREET,DSF0000800057,pre-k capacity projects,1355 84TH STREET,40.614466,-74.011425,15-Sep,2016,14-Jun,15-Jan,12.43,0,12.43,0,310,Brooklyn,0101000020E6100000D656EC2FBB8052C0814067D2A64E4440
Yes,Yes,72,20,PRE-K CENTER @ 1355 84TH STREET,DSF0000822162,pre-k capacity projects,1355 84TH STREET,40.614466,-74.011425,16-Sep,2017,15-May,15-Aug,0.4,0,0.4,0,310,Brooklyn,0101000020E6100000D656EC2FBB8052C0814067D2A64E4440
Yes,No,126,20,PRE-K CENTER @ 140A 58TH STREET,DSF0000821967,pre-k capacity projects,140A 58TH STREET,40.645338,-74.022864,15-Sep,2016,15-Apr,15-Jun,16.7,0,16.7,0,307,Brooklyn,0101000020E61000005E10919A768152C0DB6E826F9A524440
Yes,Yes,324,20,PRE-K CENTER @ 1423 62ND STREET,DSF0000821958,pre-k capacity projects,1423 62ND STREET,40.625899,-73.996729,17-Aug,2018,15-Apr,16-May,34.71,0,34.71,0,311,Brooklyn,0101000020E6100000637E6E68CA7F52C0AFCC5B751D504440
Yes,Yes,90,9,PRE-K CENTER @ 1434 OGDEN AVENUE,DSF0000801087,pre-k capacity projects,1434 OGDEN AVENUE,40.84337,-73.923736,15-Aug,2016,14-Oct,15-Mar,10.57,0,10.57,0,204,Bronx,0101000020E6100000D388997D1E7B52C0B936548CF36B4440
Yes,Yes,108,25,PRE-K CENTER @ 14-45 143RD STREET,DSF0000821980,pre-k capacity projects,14-45 143RD STREET,40.785787,-73.826154,16-Jul,2017,15-Apr,16-Jan,3.85,0,3.85,0,407,Queens,0101000020E61000006ADD06B5DF7452C09C4F1DAB94644440
Yes,Yes,180,20,PRE-K CENTER @ 1668 46TH STREET,DSF0000800047,pre-k capacity projects,1668 46TH STREET,40.631768,-73.98221,15-Jul,2016,14-Jun,14-Nov,7.13,0.02,7.11,0,312,Brooklyn,0101000020E610000077F35487DC7E52C0655419C6DD504440
Yes,Yes,126,29,PRE-K CENTER @ 168-42 JAMAICA AVENUE,DSF0000800116,pre-k capacity projects,168-42 JAMAICA AVENUE,40.706716,-73.791302,15-Jun,2015,14-Jun,14-Dec,18.22,0,18.22,0,412,Queens,0101000020E61000009AD024B1A47252C0ACC77DAB755A4440
Yes,No,180,15,PRE-K CENTER @ 168 8TH STREET,DSF0000821899,pre-k capacity projects,168 8TH STREET,40.671728,-73.989838,21-Aug,2022,17-Dec,19-Feb,23.03,0,20.95,2.08,306,Brooklyn,0101000020E6100000A3957B81597F52C05CE7DF2EFB554440
Yes,Yes,108,15,PRE-K CENTER @ 173 25TH STREET,DSF0000821928,pre-k capacity projects,173 25TH STREET,40.661059,-73.998973,15-Aug,2016,15-Mar,15-May,8.78,0,8.78,0,307,Brooklyn,0101000020E61000009225732CEF7F52C0FDDCD0949D544440
Yes,Yes,144,31,PRE-K CENTER @ 1 TELEPORT DRIVE,DSF0000800328,pre-k capacity projects,1 TELEPORT DRIVE,40.604274,-74.178469,15-Sep,2016,14-Aug,14-Dec,15.45,0,15.45,0,502,Staten Island,0101000020E610000064963D096C8B52C05BE9B5D9584D4440
Yes,Yes,90,20,PRE-K CENTER @ 2165 71ST STREET,DSF0000821713,pre-k capacity projects,2165 71ST STREET,40.610983,-73.985835,16-Aug,2017,14-Dec,15-May,21.12,0,21.12,0,311,Brooklyn,0101000020E61000002310AFEB177F52C0BBB4E1B0344E4440
Yes,Yes,72,15,PRE-K CENTER @ 219 25TH STREET,DSF0000822214,pre-k capacity projects,219 25TH STREET,40.659882,-73.997016,17-Sep,2018,15-Jul,16-Apr,12.05,0,12.05,0,307,Brooklyn,0101000020E6100000AE65321CCF7F52C00B9C6C0377544440
Yes,Yes,234,20,PRE-K CENTER @ 21 BAY 11TH STREET,DSF0000822014,pre-k capacity projects,21 BAY 11TH STREET,40.609976,-74.008608,15-Sep,2016,15-Jan,15-Aug,0.22,0,0.22,0,311,Brooklyn,0101000020E6100000F99E91088D8052C026AC8DB1134E4440
Yes,Yes,54,20,PRE-K CENTER @ 21 BAY 11TH STREET,DSF0000822082,pre-k capacity projects,21 BAY 11TH STREET,40.609976,-74.008608,16-Sep,2017,15-Apr,16-Jan,11.78,0,11.78,0,311,Brooklyn,0101000020E6100000F99E91088D8052C026AC8DB1134E4440
Yes,Yes,108,21,PRE-K CENTER @ 2202 60TH STREET,DSF0000800230,pre-k capacity projects,2202 60TH STREET,40.616479,-73.978093,15-Jul,2016,14-Jun,15-Jan,5.3,0,5.3,0,312,Brooklyn,0101000020E610000094DC6113997E52C0DCD5ABC8E84E4440
Yes,Yes,108,2,PRE-K CENTER @ 2-26 WASHINGTON ST,DSF0000800052,pre-k capacity projects,2-26 WASHINGTON STREET,40.705137,-74.015585,15-Sep,2016,14-Jun,15-Jan,13.34,0.01,13.33,0,101,Manhattan,0101000020E6100000B9533A58FF8052C08B19E1ED415A4440
Yes,Yes,198,10,PRE-K CENTER @ 2490-2500 WEBSTER AVENUE,DSF0000821875,pre-k capacity projects,2490-2500 WEBSTER AVENUE,40.860848,-73.892224,17-Sep,2018,15-Apr,16-Feb,16.29,0,16.29,0,206,Bronx,0101000020E6100000342DB1321A7952C0DB696B44306E4440
Yes,Yes,234,10,PRE-K CENTER @ 2510 MARION AVENUE,DSF0000822030,pre-k capacity projects,2510 MARION AVENUE,40.861286,-73.893258,15-Sep,2016,15-May,15-Jul,0.21,0,0.21,0,205,Bronx,0101000020E6100000FC389A232B7952C05740A19E3E6E4440
Yes,Yes,36,10,PRE-K CENTER @ 2510 MARION AVENUE,DSF0000822032,pre-k capacity projects,2510 MARION AVENUE,40.861286,-73.893258,16-Sep,2017,15-May,16-Mar,13.31,0,13.31,0,205,Bronx,0101000020E6100000FC389A232B7952C05740A19E3E6E4440
Yes,Yes,180,30,PRE-K CENTER @ 27-35 JACKSON AVENUE,DSF0000843935,pre-k capacity projects,27-35 JACKSON AVENUE,40.747962,-73.940046,17-Sep,2018,16-Jan,16-Dec,11.21,0,11.21,0,402,Queens,0101000020E610000014AFB2B6297C52C04C530438BD5F4440
Yes,No,36,2,PRE-K CENTER @ 2 LAFAYETTE STREET,DSF0000821653,pre-k capacity projects,2 LAFAYETTE STREET,40.713723,-74.003586,16-Aug,2017,14-Oct,15-Jul,8.76,0,8.76,0,101,Manhattan,0101000020E61000004D2EC6C03A8052C096B377465B5B4440
Yes,Yes,54,15,PRE-K CENTER @ 305-307 THIRD AVENUE,DSF0000821832,pre-k capacity projects,305-307 THIRD AVENUE,40.676679,-73.986646,16-Aug,2017,15-Mar,15-Nov,10,0,10,0,306,Brooklyn,0101000020E6100000ABAE4335257F52C0EB71DF6A9D564440
Yes,Yes,270,30,PRE-K CENTER @ 32-52 37TH STREET,DSF0000822015,pre-k capacity projects,32-52 37TH STREET,40.759308,-73.920948,15-Sep,2016,15-Apr,15-Aug,0.63,0,0.63,0,401,Queens,0101000020E61000004354E1CFF07A52C0ABCB290131614440
Yes,Yes,126,30,PRE-K CENTER @ 32-52 37TH STREET,DSF0000821858,pre-k capacity projects,32-52 37TH STREET,40.759308,-73.920948,17-Jul,2018,15-Apr,16-Jul,10.27,0,10.27,0,401,Queens,0101000020E61000004354E1CFF07A52C0ABCB290131614440
Yes,Yes,180,2,PRE-K CENTER @ 355 EAST 76 STREET,DSF0000866155,pre-k capacity projects,355 EAST 76 STREET,40.77086,-73.955204,19-Sep,2020,17-Apr,18-Mar,35.01,0,33.43,1.58,108,Manhattan,0101000020E61000008940F50F227D52C0B4E55C8AAB624440
Yes,Yes,90,10,PRE-K CENTER @ 3560 WEBSTER AVENUE,DSF0000821711,pre-k capacity projects,3560 WEBSTER AVENUE,40.88086,-73.870646,16-Sep,2017,14-Dec,15-Sep,8.04,0,8.04,0,212,Bronx,0101000020E61000002A1900AAB87752C0622D3E05C0704440
Yes,Yes,36,10,PRE-K CENTER @ 3605 SEDGWICK AVENUE,DSF0000821874,pre-k capacity projects,3605 SEDGWICK AVENUE,40.881542,-73.896483,16-Sep,2017,15-Apr,15-Dec,5.29,0,5.29,0,208,Bronx,0101000020E6100000E19A3BFA5F7952C07506465ED6704440
Yes,Yes,144,22,PRE-K CENTER @ 3610 GLENWOOD ROAD,DSF0000822024,pre-k capacity projects,3610 GLENWOOD ROAD,40.63436,-73.941795,15-Sep,2016,15-Mar,15-May,14.86,0,14.86,0,317,Brooklyn,0101000020E61000005322895E467C52C0FEF15EB532514440
Yes,No,252,20,PRE-K CENTER @ 369 93RD STREET,DSF0000821813,pre-k capacity projects,369 93RD STREET,40.618041,-74.031381,18-Sep,2019,15-Feb,16-Jun,43.52,0,43.52,0,310,Brooklyn,0101000020E6100000CF2D7425028252C0274BADF71B4F4440
Yes,Yes,126,21,PRE-K CENTER @ 385 AVENUE W,DSF0000822037,pre-k capacity projects,385 AVENUE W,40.592894,-73.968638,15-Sep,2016,15-Apr,15-May,3.96,0,3.96,0,315,Brooklyn,0101000020E61000006CEA3C2AFE7D52C050FF59F3E34B4440
Yes,Yes,144,24,PRE-K CENTER @ 44-15 JUDGE STREET,DSF0000800248,pre-k capacity projects,44-15 JUDGE STREET,40.742964,-73.877449,15-Jun,2015,14-Jun,14-Dec,6.05,0,6.05,0,404,Queens,0101000020E61000001BBAD91F287852C07C0DC171195F4440
Yes,Yes,108,24,PRE-K CENTER @ 46-16 76TH STREET,DSF0000800114,pre-k capacity projects,46-16 76TH STREET,40.740076,-73.888241,15-Aug,2016,14-Jun,14-Dec,15.86,0,15.86,0,404,Queens,0101000020E6100000D87DC7F0D87852C0FA4674CFBA5E4440
Yes,Yes,180,7,PRE-K CENTER @ 535 UNION AVENUE,DSF0000800055,pre-k capacity projects,535 UNION AVENUE,40.812067,-73.905569,15-Jul,2016,14-Jun,14-Dec,13.16,0,13.16,0,201,Bronx,0101000020E61000005FD1ADD7F47952C09694BBCFF1674440
Yes,Yes,54,10,PRE-K CENTER @ 5500 BROADWAY,DSF0000821828,pre-k capacity projects,5500 BROADWAY,40.877062,-73.906185,16-Sep,2017,15-Apr,16-Feb,5.87,0,5.87,0,208,Bronx,0101000020E61000000CC85EEFFE7952C03D484F9143704440
Yes,Yes,162,20,PRE-K CENTER @ 550 59TH STREET,DSF0000800304,pre-k capacity projects,550 59TH STREET,40.639386,-74.014449,16-Aug,2017,14-Jul,15-Dec,9.97,0,9.97,0,307,Brooklyn,0101000020E61000006F9D7FBBEC8052C098C28366D7514440
Yes,Yes,162,24,PRE-K CENTER @ 56-01 61ST STREET,DSF0000822111,pre-k capacity projects,56-01 61ST STREET,40.724967,-73.904289,15-Sep,2016,15-May,15-Jul,7.25,0,7.25,0,405,Queens,0101000020E61000007C48F8DEDF7952C0F1D6F9B7CB5C4440
Yes,Yes,36,24,PRE-K CENTER @ 57-06 99TH STREET,DSF0000844747,pre-k capacity projects,57-06 99TH STREET,40.738242,-73.860015,17-Sep,2018,16-Sep,17-Jun,6.44,0,6.44,0,404,Queens,0101000020E610000072C45A7C0A7752C04E44BFB67E5E4440
Yes,Yes,180,24,PRE-K CENTER @ 68-20 MYRTLE AVENUE,DSF0000800282,pre-k capacity projects,68-20 MYRTLE AVENUE,40.701684,-73.883891,15-Jul,2016,14-Jul,14-Dec,7.88,0,7.88,0,405,Queens,0101000020E6100000A48E8EAB917852C0301004C8D0594440
Yes,Yes,90,24,PRE-K CENTER @ 70-24 47TH AVENUE,DSF0000822186,pre-k capacity projects,70-24 47TH AVENUE,40.739014,-73.893771,17-Sep,2018,15-Jun,16-Apr,4.19,0,4.19,0,402,Queens,0101000020E61000003FC7478B337952C0A0A4C002985E4440
Yes,Yes,270,20,PRE-K CENTER @ 7401 FORT HAMILTON PARKWAY,DSF0000822086,pre-k capacity projects,7401 FORT HAMILTON PARKWAY,40.62621,-74.015818,15-Sep,2016,15-May,15-Jul,14.78,0,14.78,0,310,Brooklyn,0101000020E61000000A2C8029038152C0CE3637A627504440
Yes,Yes,72,28,PRE-K CENTER @ 83-30 KEW GARDENS ROAD,DSF0000801086,pre-k capacity projects,83-30 KEW GARDENS ROAD,40.710251,-73.827441,15-Aug,2016,14-Sep,15-Mar,7.36,0,7.36,0,409,Queens,0101000020E6100000A69718CBF47452C0C4793881E95A4440
Yes,No,18,20,PRE-K CENTER @ 8501 5TH AVENUE,DSF0000821654,pre-k capacity projects,8501 5TH AVENUE,40.622039,-74.025734,15-Sep,2016,14-Oct,15-Apr,6.14,0,6.14,0,310,Brooklyn,0101000020E61000004C1938A0A58152C014EB54F99E4F4440
Yes,Yes,72,28,PRE-K CENTER @ 89-14 PARSONS BOULEVARD,DSF0000800117,pre-k capacity projects,89-14 PARSONS BOULEVARD,40.705532,-73.801531,15-Jun,2015,14-Jun,14-Dec,7.43,0,7.43,0,412,Queens,0101000020E6100000BBEEAD484C7352C0072461DF4E5A4440
Yes,Yes,108,30,PRE-K CENTER @ 96-10 23RD AVENUE,DSF0000800058,pre-k capacity projects,96-10 23RD AVENUE,40.768352,-73.874092,15-Jun,2015,14-Jun,14-Dec,11.17,0.01,11.17,0,403,Queens,0101000020E61000007F6C921FF17752C079E8BB5B59624440
Yes,Yes,54,24,PRE-K CENTER @ 98-22 55 AVENUE,DSF0000865849,pre-k capacity projects,98-22 55 AVENUE,40.739192,-73.862261,17-Sep,2018,17-Jan,17-Apr,0.36,0,0.36,0,404,Queens,0101000020E610000071E7C2482F7752C080BBECD79D5E4440
Yes,Yes,211,24,P.S. 143 ANNEX,DSF0000798197,capacity projects,98-07 38TH AVENUE,40.750246,-73.867825,Sep-18,2019,Dec-15,Aug-17,12.46,0,12.46,0,403,Queens,0101000020E6100000AD69DE718A7752C037FA980F08604440
Yes,No,458,12,P.S. @ 1559 BOONE AVENUE,DSF0000798179,capacity projects,1559 BOONE AVENUE,40.833131,-73.885049,Jul-22,2023,Jan-18,Jun-19,50.25,0.03,45.15,5.07,203,Bronx,0101000020E6100000E1968FA4A47852C053245F09A46A4440
Yes,No,468,26,P.S. 332,DSF0000798205,capacity projects,210-21 48TH AVENUE,40.754956,-73.770307,Sep-17,2018,Feb-14,Aug-15,100.44,6.85,93.59,0,411,Queens,0101000020E61000005038BBB54C7152C0A1F5F065A2604440
Yes,No,516,27,P.S. 335,DSF0000417420,capacity projects,150-15 RALEIGH STREET,40.668127,-73.837189,Sep-17,2018,Sep-13,Jul-15,108.73,6.25,102.48,0,410,Queens,0101000020E61000008AE42B81947552C08C497F2F85554440
Yes,No,388,10,P.S. 33 ANNEX,DSF0000798177,capacity projects,2424 JEROME AVENUE,40.86185,-73.90176,Sep-21,2022,Aug-17,Oct-18,72.79,0.02,65.12,7.64,205,Bronx,0101000020E6100000D235936FB67952C05F07CE19516E4440
Yes,No,748,31,P.S. @ 357 TARGEE STREET,DSF0000843832,capacity projects,357 TARGEE STREET,40.618679,-74.084846,Jun-22,2022,May-17,Dec-18,113.43,0,102.04,11.39,501,Staten Island,0101000020E610000092CCEA1D6E8552C06ADC9BDF304F4440
Yes,No,476,30,P.S. 398,DSF0000798210,capacity projects,69-01 34TH AVENUE,40.752493,-73.896922,Jun-19,2019,Jun-15,Mar-17,94.31,0,94.31,0,403,Queens,0101000020E61000000744882B677952C006BCCCB051604440
Yes,No,332,15,P.S. @ 4302 4TH AVENUE,DSF0000798182,capacity projects,4302 4TH AVENUE,40.650305,-74.008602,Jun-22,2022,Aug-16,Dec-18,92.92,0,85.15,7.77,307,Brooklyn,0101000020E6100000882B67EF8C8052C070B6B9313D534440
Yes,No,456,31,P.S. @ 450 NEW DORP LANE,DSF0000798213,capacity projects,450 NEW DORP LANE,40.569703,-74.108357,Jun-22,2022,Apr-18,Jul-19,50.25,0,4.94,45.31,502,Staten Island,0101000020E6100000BBD23252EF8652C06FB72407EC484440
Yes,No,328,15,P.S. @ 4525 8TH AVENUE,DSF0000798183,capacity projects,4525 8TH AVENUE,40.643734,-74.000977,Sep-21,2022,Mar-17,Nov-18,83.74,0.05,76.34,7.36,312,Brooklyn,0101000020E610000016C3D501108052C061A92EE065524440
Yes,No,450,2,P.S. 464,DSF0000798170,capacity projects,28-42 TRINITY PLACE,40.706979,-74.013508,Apr-22,2022,May-15,Apr-19,54.04,0,48.35,5.69,101,Manhattan,0101000020E6100000008FA850DD8052C0B9FAB1497E5A4440
Yes,Yes,113,15,P.S. 516 SUNSET PARK AVENUES ELEMENTARY SCHOOL,DSF0000799396,capacity projects,4222 4TH AVENUE,40.650785,-74.008105,Jul-16,2017,Jan-14,Jul-14,11.6,0.12,11.49,0,307,Brooklyn,0101000020E6100000C87BD5CA848052C01ADD41EC4C534440
Yes,Yes,224,15,P.S. @ 736 48TH STREET,DSF0000866093,capacity projects,736 48TH STREET,40.643018,-74.003856,Sep-18,2019,May-17,Jun-18,16.49,0,16.49,0,307,Brooklyn,0101000020E61000002D793C2D3F8052C0A25EF0694E524440
Yes,No,976,20,P.S. 746,DSF0000798186,capacity projects,256 59TH STREET,40.643337,-74.021011,Mar-20,2020,Apr-15,Jun-17,128.94,0.1,118.17,10.67,307,Brooklyn,0101000020E6100000CD76853E588152C044A7E7DD58524440
Yes,No,404,15,P.S. @ 836-841 5TH AVENUE,DSF0000843828,capacity projects,836-841 5TH AVENUE,40.653319,-74.001791,Apr-21,2021,Aug-17,Nov-18,89.85,0,81.89,7.96,307,Brooklyn,0101000020E6100000569BFF571D8052C07F6DFDF49F534440
Yes,Yes,332,13,P.S. @ ALBEE SQUARE WEST,DSF0000843660,capacity projects,420 ALBEE SQUARE WEST,40.691157,-73.983459,Apr-22,2022,Nov-17,Feb-19,45.46,0,40.63,4.83,302,Brooklyn,0101000020E61000003D7D04FEF07E52C063B323D577584440
Yes,No,382,15,P.S./H.S. @ SCHERMERHORN STREET,DSF0000888773,capacity projects,362 SCHERMERHORN STREET,40.686499,-73.979649,Jun-22,2022,Sep-17,May-19,2.05,0,2.05,0,302,Brooklyn,0101000020E6100000C823B891B27E52C04CDE0033DF574440
Yes,No,1000,19,P.S./I.S. @ 3269 ATLANTIC AVENUE,DSF0000822081,capacity projects,3269 ATLANTIC AVENUE,40.680655,-73.875152,Sep-20,2021,Jul-16,Dec-17,127.56,0,116.52,11.04,305,Brooklyn,0101000020E6100000DBC1887D027852C0F06DFAB31F574440
Yes,No,572,30,P.S. @ PARCEL C,DSF0000843659,capacity projects,1-50 54TH AVENUE,40.740933,-73.960045,Jun-21,2021,Dec-16,Apr-18,102.06,0,93.09,8.97,402,Queens,0101000020E61000000D6C9560717D52C07AC37DE4D65E4440
Yes,Yes,245,5,TEACHER'S COLLEGE COMMUNITY SCHOOL ANNEX,DSF0000866751,capacity projects,223-233 WEST 132 STREET,40.813781,-73.946024,Sep-18,2019,Aug-17,May-18,20,0,20,0,110,Manhattan,0101000020E6100000CA4E3FA88B7C52C0978DCEF929684440
Yes,No,333,13,THE DOCK STREET EDUCATIONAL COMPLEX,DSF0000687093,capacity projects,19 DOCK STREET,40.703106,-73.992549,Jul-16,2017,May-12,May-15,41.47,3.57,37.9,0,302,Brooklyn,0101000020E61000005CAB3DEC857F52C089CF9D60FF594440
Yes,Yes,72,13,THE DOCK STREET EDUCATIONAL COMPLEX,DSF0000821675,pre-k capacity projects,19 DOCK STREET,40.703106,-73.992549,16-Jul,2017,14-Dec,15-May,5.97,0,5.97,0,302,Brooklyn,0101000020E61000005CAB3DEC857F52C089CF9D60FF594440
Yes,No,692,3,THE RIVERSIDE SCHOOL,DSF0000730952,capacity projects,300 WEST 61ST STREET,40.772883,-73.989609,Sep-17,2018,Apr-11,Jun-16,110.39,3.61,106.78,0,107,Manhattan,0101000020E6100000F2B4FCC0557F52C0335184D4ED624440
